[{"OBJECT_NAME":"IRIS","OBJECT_ID":"2013-033A","EPOCH":"2026-03-09T13:26:21.239520","MEAN_MOTION":14.85645982,"ECCENTRICITY":0.00232612,"INCLINATION":97.9395,"RA_OF_ASC_NODE":268.1167,"ARG_OF_PERICENTER":285.8728,"MEAN_ANOMALY":73.9923,"EPHEMERIS_TYPE":0,"CLASSIFICATION_TYPE":"U","NORAD_CAT_ID":39197,"ELEMENT_SET_NO":999,"REV_AT_EPOCH":68558,"BSTAR":0.00024024039,"MEAN_MOTION_DOT":2.035e-5,"MEAN_MOTION_DDOT":0},{"OBJECT_NAME":"GEESAT-6 07","OBJECT_ID":"2025-214H","EPOCH":"2026-03-09T23:17:40.916544","MEAN_MOTION":14.8298503,"ECCENTRICITY":0.00099776,"INCLINATION":49.9797,"RA_OF_ASC_NODE":47.5625,"ARG_OF_PERICENTER":215.7737,"MEAN_ANOMALY":144.2534,"EPHEMERIS_TYPE":0,"CLASSIFICATION_TYPE":"U","NORAD_CAT_ID":65719,"ELEMENT_SET_NO":999,"REV_AT_EPOCH":2479,"BSTAR":0.00039218363,"MEAN_MOTION_DOT":2.997e-5,"MEAN_MOTION_DDOT":0}]
